start=new Date('2022-11-28T00:00:00.000Z').valueOf();
sats=[{"MEAN_ANOMALY":"325.6252","ELEMENT_SET_NO":"999","OBJECT_ID":"2022-052AL","CLASSIFICATION_TYPE":"U","EPHEMERIS_TYPE":"0","RCS_SIZE":"LARGE","ARG_OF_PERICENTER":"34.4904","REF_FRAME":"TEME","OBJECT_NAME":"STARLINK-3995","MEAN_MOTION":"15.08848756","ECCENTRICITY":"0.00025290","INCLINATION":"53.2198","LAUNCH_DATE":"2022-05-14","TLE_LINE2":"2 52632  53.2198 249.4774 0002529  34.4904 325.6252 15.08848756 30063","MEAN_MOTION_DOT":"0.00001548","BSTAR":"0.00011530000000","PERIAPSIS":"537.969","TLE_LINE1":"1 52632U 22052AL  22331.17140848  .00001548  00000-0  11530-3 0  9994","NORAD_CAT_ID":"52632","SEMIMAJOR_AXIS":"6917.854","DECAY_DATE":null,"SITE":"AFETR","MEAN_MOTION_DDOT":"0.0000000000000","FILE":"3671616","PERIOD":"95.437","OBJECT_TYPE":"PAYLOAD","CENTER_NAME":"EARTH","APOAPSIS":"541.468","MEAN_ELEMENT_THEORY":"SGP4","REV_AT_EPOCH":"3006","EPOCH":"2022-11-27T04:06:49.692672","TIME_SYSTEM":"UTC","RA_OF_ASC_NODE":"249.4774","GP_ID":"218959003","COUNTRY_CODE":"US"},{"COUNTRY_CODE":"US","GP_ID":"218959254","RA_OF_ASC_NODE":"249.5778","OBJECT_TYPE":"PAYLOAD","CENTER_NAME":"EARTH","EPOCH":"2022-11-27T03:35:02.281344","TIME_SYSTEM":"UTC","APOAPSIS":"541.159","MEAN_ELEMENT_THEORY":"SGP4","REV_AT_EPOCH":"3006","PERIOD":"95.437","FILE":"3671616","NORAD_CAT_ID":"52633","TLE_LINE1":"1 52633U 22052AM  22331.14933196  .00002098  00000-0  14988-3 0  9999","DECAY_DATE":null,"SITE":"AFETR","MEAN_MOTION_DDOT":"0.0000000000000","SEMIMAJOR_AXIS":"6917.871","PERIAPSIS":"538.313","INCLINATION":"53.2192","LAUNCH_DATE":"2022-05-14","MEAN_MOTION":"15.08843058","ECCENTRICITY":"0.00020570","BSTAR":"0.00014988000000","MEAN_MOTION_DOT":"0.00002098","TLE_LINE2":"2 52633  53.2192 249.5778 0002057  36.9002 323.2131 15.08843058 30065","RCS_SIZE":"LARGE","ARG_OF_PERICENTER":"36.9002","OBJECT_NAME":"STARLINK-3994","REF_FRAME":"TEME","MEAN_ANOMALY":"323.2131","OBJECT_ID":"2022-052AM","EPHEMERIS_TYPE":"0","CLASSIFICATION_TYPE":"U","ELEMENT_SET_NO":"999"},{"PERIAPSIS":"537.923","INCLINATION":"53.2179","LAUNCH_DATE":"2022-05-14","MEAN_MOTION":"15.08836594","ECCENTRICITY":"0.00026500","BSTAR":"-0.00002194400000","MEAN_MOTION_DOT":"-0.00000638","TLE_LINE2":"2 52634  53.2179 246.8548 0002650  39.2386 320.8798 15.08836594 30144","RCS_SIZE":"LARGE","ARG_OF_PERICENTER":"39.2386","OBJECT_NAME":"STARLINK-3974","REF_FRAME":"TEME","MEAN_ANOMALY":"320.8798","OBJECT_ID":"2022-052AN","CLASSIFICATION_TYPE":"U","EPHEMERIS_TYPE":"0","ELEMENT_SET_NO":"999","GP_ID":"218991506","COUNTRY_CODE":"US","RA_OF_ASC_NODE":"246.8548","OBJECT_TYPE":"PAYLOAD","CENTER_NAME":"EARTH","TIME_SYSTEM":"UTC","EPOCH":"2022-11-27T18:10:47.674272","APOAPSIS":"541.589","MEAN_ELEMENT_THEORY":"SGP4","REV_AT_EPOCH":"3014","FILE":"3671921","PERIOD":"95.438","NORAD_CAT_ID":"52634","TLE_LINE1":"1 52634U 22052AN  22331.75749623 -.00000638  00000-0 -21944-4 0  9998","DECAY_DATE":null,"MEAN_MOTION_DDOT":"0.0000000000000","SITE":"AFETR","SEMIMAJOR_AXIS":"6917.891"},{"REV_AT_EPOCH":"3029","MEAN_ELEMENT_THEORY":"SGP4","APOAPSIS":"541.813","EPOCH":"2022-11-27T19:03:43.843680","TIME_SYSTEM":"UTC","CENTER_NAME":"EARTH","OBJECT_TYPE":"PAYLOAD","RA_OF_ASC_NODE":"236.6766","COUNTRY_CODE":"US","GP_ID":"218992756","SEMIMAJOR_AXIS":"6917.916","SITE":"AFETR","DECAY_DATE":null,"MEAN_MOTION_DDOT":"0.0000000000000","TLE_LINE1":"1 52635U 22052AP  22331.79425745 -.00001259  00000-0 -60970-4 0  9991","NORAD_CAT_ID":"52635","PERIOD":"95.438","FILE":"3671921","MEAN_MOTION_DOT":"-0.00001259","TLE_LINE2":"2 52635  53.2168 236.6766 0002938  31.5519 328.5649 15.08828454 30296","BSTAR":"-0.00006097000000","ECCENTRICITY":"0.00029380","MEAN_MOTION":"15.08828454","LAUNCH_DATE":"2022-05-14","INCLINATION":"53.2168","PERIAPSIS":"537.748","ELEMENT_SET_NO":"999","EPHEMERIS_TYPE":"0","CLASSIFICATION_TYPE":"U","OBJECT_ID":"2022-052AP","MEAN_ANOMALY":"328.5649","REF_FRAME":"TEME","OBJECT_NAME":"STARLINK-3978","ARG_OF_PERICENTER":"31.5519","RCS_SIZE":"LARGE"},{"GP_ID":"218962218","COUNTRY_CODE":"US","RA_OF_ASC_NODE":"248.0514","OBJECT_TYPE":"PAYLOAD","CENTER_NAME":"EARTH","EPOCH":"2022-11-27T11:42:34.750080","TIME_SYSTEM":"UTC","APOAPSIS":"541.295","MEAN_ELEMENT_THEORY":"SGP4","REV_AT_EPOCH":"3048","PERIOD":"95.438","FILE":"3671645","NORAD_CAT_ID":"52636","TLE_LINE1":"1 52636U 22052AQ  22331.48790220 -.00000344  00000-0 -35189-5 0  9990","DECAY_DATE":null,"SITE":"AFETR","MEAN_MOTION_DDOT":"0.0000000000000","SEMIMAJOR_AXIS":"6917.899","PERIAPSIS":"538.233","INCLINATION":"53.2182","LAUNCH_DATE":"2022-05-14","MEAN_MOTION":"15.08834015","ECCENTRICITY":"0.00022130","BSTAR":"-0.00000351890000","TLE_LINE2":"2 52636  53.2182 248.0514 0002213  33.2492 326.8639 15.08834015 30487","MEAN_MOTION_DOT":"-0.00000344","RCS_SIZE":"LARGE","ARG_OF_PERICENTER":"33.2492","OBJECT_NAME":"STARLINK-3967","REF_FRAME":"TEME","MEAN_ANOMALY":"326.8639","OBJECT_ID":"2022-052AQ","CLASSIFICATION_TYPE":"U","EPHEMERIS_TYPE":"0","ELEMENT_SET_NO":"999"},{"SEMIMAJOR_AXIS":"6917.865","SITE":"AFETR","DECAY_DATE":null,"MEAN_MOTION_DDOT":"0.0000000000000","TLE_LINE1":"1 52637U 22052AR  22331.79057461 -.00001121  00000-0 -52272-4 0  9993","NORAD_CAT_ID":"52637","PERIOD":"95.437","FILE":"3671921","REV_AT_EPOCH":"3109","APOAPSIS":"541.611","MEAN_ELEMENT_THEORY":"SGP4","TIME_SYSTEM":"UTC","EPOCH":"2022-11-27T18:58:25.646304","CENTER_NAME":"EARTH","OBJECT_TYPE":"PAYLOAD","RA_OF_ASC_NODE":"236.6959","GP_ID":"218991256","COUNTRY_CODE":"US","ELEMENT_SET_NO":"999","CLASSIFICATION_TYPE":"U","EPHEMERIS_TYPE":"0","OBJECT_ID":"2022-052AR","MEAN_ANOMALY":"328.8090","REF_FRAME":"TEME","OBJECT_NAME":"STARLINK-3961","ARG_OF_PERICENTER":"31.3064","RCS_SIZE":"LARGE","MEAN_MOTION_DOT":"-0.00001121","TLE_LINE2":"2 52637  53.2170 236.6959 0002719  31.3064 328.8090 15.08844917 31099","BSTAR":"-0.00005227200000","ECCENTRICITY":"0.00027190","MEAN_MOTION":"15.08844917","LAUNCH_DATE":"2022-05-14","INCLINATION":"53.2170","PERIAPSIS":"537.849"},{"OBJECT_TYPE":"PAYLOAD","CENTER_NAME":"EARTH","APOAPSIS":"541.254","MEAN_ELEMENT_THEORY":"SGP4","REV_AT_EPOCH":"3095","TIME_SYSTEM":"UTC","EPOCH":"2022-11-27T17:58:49.127808","RA_OF_ASC_NODE":"246.8938","GP_ID":"218992005","COUNTRY_CODE":"US","TLE_LINE1":"1 52638U 22052AS  22331.74917972 -.00001449  00000-0 -72951-4 0  9990","NORAD_CAT_ID":"52638","SEMIMAJOR_AXIS":"6917.873","SITE":"AFETR","DECAY_DATE":null,"MEAN_MOTION_DDOT":"0.0000000000000","FILE":"3671921","PERIOD":"95.437","MEAN_MOTION":"15.08842420","ECCENTRICITY":"0.00021920","INCLINATION":"53.2201","LAUNCH_DATE":"2022-05-14","TLE_LINE2":"2 52638  53.2201 246.8938 0002192  45.5486 314.5685 15.08842420 30958","MEAN_MOTION_DOT":"-0.00001449","BSTAR":"-0.00007295100000","PERIAPSIS":"538.222","MEAN_ANOMALY":"314.5685","ELEMENT_SET_NO":"999","OBJECT_ID":"2022-052AS","CLASSIFICATION_TYPE":"U","EPHEMERIS_TYPE":"0","RCS_SIZE":"LARGE","ARG_OF_PERICENTER":"45.5486","REF_FRAME":"TEME","OBJECT_NAME":"STARLINK-3941"},{"PERIOD":"95.439","FILE":"3671921","SITE":"AFETR","DECAY_DATE":null,"MEAN_MOTION_DDOT":"0.0000000000000","SEMIMAJOR_AXIS":"6917.929","NORAD_CAT_ID":"52639","TLE_LINE1":"1 52639U 22052AT  22331.84578009  .00000583  00000-0  54765-4 0  9995","GP_ID":"218992257","COUNTRY_CODE":"US","RA_OF_ASC_NODE":"236.4525","EPOCH":"2022-11-27T20:17:55.399776","TIME_SYSTEM":"UTC","APOAPSIS":"542.116","MEAN_ELEMENT_THEORY":"SGP4","REV_AT_EPOCH":"3110","OBJECT_TYPE":"PAYLOAD","CENTER_NAME":"EARTH","OBJECT_NAME":"STARLINK-3968","REF_FRAME":"TEME","RCS_SIZE":"LARGE","ARG_OF_PERICENTER":"33.9526","OBJECT_ID":"2022-052AT","CLASSIFICATION_TYPE":"U","EPHEMERIS_TYPE":"0","ELEMENT_SET_NO":"999","MEAN_ANOMALY":"326.1680","PERIAPSIS":"537.472","BSTAR":"0.00005476500000","MEAN_MOTION_DOT":"0.00000583","TLE_LINE2":"2 52639  53.2193 236.4525 0003356  33.9526 326.1680 15.08824075 31103","INCLINATION":"53.2193","LAUNCH_DATE":"2022-05-14","MEAN_MOTION":"15.08824075","ECCENTRICITY":"0.00033560"},{"CENTER_NAME":"EARTH","OBJECT_TYPE":"PAYLOAD","REV_AT_EPOCH":"3027","APOAPSIS":"541.787","MEAN_ELEMENT_THEORY":"SGP4","TIME_SYSTEM":"UTC","EPOCH":"2022-11-27T17:29:43.715616","RA_OF_ASC_NODE":"236.9664","GP_ID":"218992507","COUNTRY_CODE":"US","TLE_LINE1":"1 52640U 22052AU  22331.72897819 -.00001281  00000-0 -62346-4 0  9999","NORAD_CAT_ID":"52640","SEMIMAJOR_AXIS":"6917.904","DECAY_DATE":null,"SITE":"AFETR","MEAN_MOTION_DDOT":"0.0000000000000","PERIOD":"95.438","FILE":"3671921","ECCENTRICITY":"0.00029170","MEAN_MOTION":"15.08832336","LAUNCH_DATE":"2022-05-14","INCLINATION":"53.2173","TLE_LINE2":"2 52640  53.2173 236.9664 0002917  31.9875 328.1294 15.08832336 30278","MEAN_MOTION_DOT":"-0.00001281","BSTAR":"-0.00006234600000","PERIAPSIS":"537.751","MEAN_ANOMALY":"328.1294","ELEMENT_SET_NO":"999","CLASSIFICATION_TYPE":"U","EPHEMERIS_TYPE":"0","OBJECT_ID":"2022-052AU","ARG_OF_PERICENTER":"31.9875","RCS_SIZE":"LARGE","REF_FRAME":"TEME","OBJECT_NAME":"STARLINK-3977"},{"TIME_SYSTEM":"UTC","EPOCH":"2022-11-27T21:48:01.074528","APOAPSIS":"541.846","MEAN_ELEMENT_THEORY":"SGP4","REV_AT_EPOCH":"3068","OBJECT_TYPE":"PAYLOAD","CENTER_NAME":"EARTH","GP_ID":"218967988","COUNTRY_CODE":"US","RA_OF_ASC_NODE":"236.1680","DECAY_DATE":null,"SITE":"AFETR","MEAN_MOTION_DDOT":"0.0000000000000","SEMIMAJOR_AXIS":"6917.911","NORAD_CAT_ID":"52641","TLE_LINE1":"1 52641U 22052AV  22331.90834577 -.00001241  00000-0 -59860-4 0  9995","FILE":"3671915","PERIOD":"95.438","BSTAR":"-0.00005986000000","TLE_LINE2":"2 52641  53.2176 236.1680 0002991  32.1753 327.9421 15.08829853 30686","MEAN_MOTION_DOT":"-0.00001241","INCLINATION":"53.2176","LAUNCH_DATE":"2022-05-14","MEAN_MOTION":"15.08829853","ECCENTRICITY":"0.00029910","PERIAPSIS":"537.707","OBJECT_ID":"2022-052AV","CLASSIFICATION_TYPE":"U","EPHEMERIS_TYPE":"0","ELEMENT_SET_NO":"999","MEAN_ANOMALY":"327.9421","OBJECT_NAME":"STARLINK-3991","REF_FRAME":"TEME","RCS_SIZE":"LARGE","ARG_OF_PERICENTER":"32.1753"}];
